OBJECT_NAME,OBJECT_ID,EPOCH,MEAN_MOTION,ECCENTRICITY,INCLINATION,RA_OF_ASC_NODE,ARG_OF_PERICENTER,MEAN_ANOMALY,EPHEMERIS_TYPE,CLASSIFICATION_TYPE,NORAD_CAT_ID,ELEMENT_SET_NO,REV_AT_EPOCH,BSTAR,MEAN_MOTION_DOT,MEAN_MOTION_DDOT
SITRO-AIS 8 (ANOKHIN),2023-091AD,2026-07-18T22:47:55.683456,15.32914730,.00091225,97.5034,265.8851,354.2204,5.8931,0,U,57193,999,16931,.23446575E-3,.7382E-4,0
SITRO-AIS 7 (FARTUSHNIY),2023-091AE,2026-07-18T22:07:46.711488,15.26148935,.00107498,97.5042,262.8917,4.8213,355.3127,0,U,57194,999,16911,.19451316E-3,.4956E-4,0
AVION KALUGA 650,2023-091AF,2026-07-18T22:45:04.080960,15.20653571,.0010069,97.5068,259.3992,9.6758,350.4669,0,U,57195,999,16885,.12461866E-3,.2668E-4,0
HORS 2,2023-091AG,2026-07-18T23:12:56.472192,15.32616334,.00064542,97.5066,267.4445,340.5304,19.5691,0,U,57196,999,16939,.22055286E-3,.6869E-4,0
A-SEANSAT-PG1,2023-091AH,2026-07-18T23:12:20.082240,15.37961668,.00053278,97.5059,270.2479,333.5235,26.5737,0,U,57197,999,16959,.27776299E-3,.10292E-3,0
SITRO-AIS 10 (BURDAEV),2023-091AK,2026-07-18T21:49:42.341376,15.39710977,.00045629,97.5060,271.2341,324.5227,35.5715,0,U,57199,999,16964,.27069952E-3,.10618E-3,0
SITRO-AIS 9 (SHCHUKIN),2023-091AM,2026-07-18T22:42:40.078944,15.39194439,.00048136,97.5058,270.9762,325.1412,34.9518,0,U,57201,999,16963,.27745122E-3,.10702E-3,0
UTMN 2 (RS27S),2023-091AP,2026-07-18T22:13:41.466432,15.32753032,.00063817,97.5066,267.6009,335.4353,24.6584,0,U,57203,999,16940,.21274422E-3,.6652E-4,0
SITRO-AIS 12 (SMIRENNIY),2023-091AQ,2026-07-18T22:20:26.602944,15.39489947,.00044385,97.5071,271.4476,316.9020,43.1878,0,U,57204,999,16965,.28022055E-3,.10915E-3,0
SITRO-AIS 11 (SHEFFER),2023-091AU,2026-07-18T22:26:50.241408,15.39936833,.00043669,97.5069,271.7193,315.9681,44.1216,0,U,57208,999,16967,.28724425E-3,.11357E-3,0
H2SAT (HEINRICH HERTZ),2023-093A,2026-07-18T02:18:38.678400,1.00270990,.00001682,0.0259,101.2408,31.9153,198.0918,0,U,57213,999,1122,0,-.7E-7,0
KUZGTU 1 (RS47S),2023-091AV,2026-07-18T22:41:35.531232,15.30518628,.00096787,97.5042,264.7615,352.5658,7.5437,0,U,57217,999,16923,.2170945E-3,.6335E-4,0
QIANKUN-1,2023-103B,2026-07-16T14:42:06.791040,16.07858994,.0035589,96.1400,240.3808,130.8922,229.5456,0,U,57422,999,17202,.75371E-5,.6165E-4,.16552E-5
FENGYUN 3F,2023-111A,2026-07-18T23:10:10.678368,14.19943808,.00012032,98.6823,269.3798,75.4782,284.6528,0,U,57490,999,15337,.22199512E-4,.4E-7,0
HJ-2F,2023-116A,2026-07-18T23:54:19.946880,15.22724905,.00063837,97.3853,204.6708,295.9891,64.0688,0,U,57519,999,16359,.1665554E-3,.3816E-4,0
XRISM,2023-137A,2026-07-18T04:56:11.328288,15.12682622,.00078538,31.0010,158.6362,276.0934,83.8810,0,U,57800,999,15756,.12223057E-3,.2291E-4,0
METEOR-M2 4,2024-039A,2026-07-18T23:28:18.308352,14.22432338,.00082478,98.7028,158.8796,79.4037,280.8069,0,U,59051,999,12378,.13809884E-4,-.13E-6,0
GRBBETA,2024-128C,2026-07-18T21:00:58.056480,15.06822536,.00365906,61.9889,105.0706,141.4995,218.8719,0,U,60237,999,11104,.12621547E-3,.1695E-4,0
TRANSPORTER-11 OBJECT A,2024-149A,2026-07-18T17:49:35.577696,15.33372422,.00049844,97.3721,279.5832,107.7894,252.3893,0,U,60468,999,10689,.13908151E-3,.4407E-4,0
WARATAH SEED-1,2024-149B,2026-07-18T23:03:27.744192,15.36674539,.00032912,97.3676,280.5803,113.5281,246.6310,0,U,60469,999,10699,.20776803E-3,.7361E-4,0
PHISAT 2,2024-149C,2026-07-18T22:29:03.115968,15.31464723,.00033203,97.3743,278.9835,116.0466,244.1118,0,U,60470,999,10685,.16541998E-3,.4949E-4,0
LEMUR-2-TOMATOKECHUP,2024-149D,2026-07-18T18:16:13.359072,15.36625314,.00034061,97.3787,281.9009,115.5350,244.6247,0,U,60471,999,10701,.16002746E-3,.5641E-4,0
CONNECTA IOT-1,2024-149E,2026-07-18T18:00:48.849696,15.23756999,.00030624,97.3746,275.5116,134.8008,225.3479,0,U,60472,999,10660,.84388598E-4,.1959E-4,0
LOPEN,2024-149F,2026-07-18T18:31:03.309312,15.40526224,.00029758,97.3768,283.4046,127.5605,232.5912,0,U,60473,999,10712,.20486505E-3,.8232E-4,0
ROCK,2024-149G,2026-07-18T18:11:59.813088,15.40513359,.0003244,97.3765,283.4052,124.8366,235.3186,0,U,60474,999,10712,.19865544E-3,.7976E-4,0
CONNECTA IOT-3,2024-149H,2026-07-18T21:40:20.456256,15.23771698,.00042357,97.3720,275.4048,134.2831,225.8754,0,U,60475,999,10663,.88756577E-4,.2065E-4,0
QUBE,2024-149J,2026-07-18T18:49:34.126464,15.48612004,.00033702,97.3768,286.8597,122.6859,237.4717,0,U,60476,999,10735,.28489126E-3,.15126E-3,0
WREN-1,2024-149L,2026-07-18T19:10:07.360320,15.42713026,.00057047,97.3754,284.2695,141.2030,218.9628,0,U,60478,999,10719,.26473402E-3,.11477E-3,0
TOMORROW-S1,2024-149M,2026-07-18T19:05:30.897600,15.33121780,.00042262,97.3738,280.1758,123.1507,237.0141,0,U,60479,999,10693,.12434383E-3,.39E-4,0
