SITRO-AIS 8 (ANOKHIN)   
1 57193U 23091AD  26199.94995004  .00007382  00000+0  23447-3 0  9999
2 57193  97.5034 265.8851 0009122 354.2204   5.8931 15.32914730169315
SITRO-AIS 7 (FARTUSHNIY)
1 57194U 23091AE  26199.92206842  .00004956  00000+0  19451-3 0  9997
2 57194  97.5042 262.8917 0010749   4.8213 355.3127 15.26148935169117
AVION KALUGA 650        
1 57195U 23091AF  26199.94796390  .00002668  00000+0  12462-3 0  9995
2 57195  97.5068 259.3992 0010069   9.6758 350.4669 15.20653571168850
HORS 2                  
1 57196U 23091AG  26199.96732028  .00006869  00000+0  22055-3 0  9992
2 57196  97.5066 267.4445 0006454 340.5304  19.5691 15.32616334169396
A-SEANSAT-PG1           
1 57197U 23091AH  26199.96689910  .00010292  00000+0  27776-3 0  9994
2 57197  97.5059 270.2479 0005327 333.5235  26.5737 15.37961668169590
SITRO-AIS 10 (BURDAEV)  
1 57199U 23091AK  26199.90951784  .00010618  00000+0  27070-3 0  9990
2 57199  97.5060 271.2341 0004562 324.5227  35.5715 15.39710977169643
SITRO-AIS 9 (SHCHUKIN)  
1 57201U 23091AM  26199.94629721  .00010702  00000+0  27745-3 0  9994
2 57201  97.5058 270.9762 0004813 325.1412  34.9518 15.39194439169631
UTMN 2 (RS27S)          
1 57203U 23091AP  26199.92617438  .00006652  00000+0  21274-3 0  9996
2 57203  97.5066 267.6009 0006381 335.4353  24.6584 15.32753032169406
SITRO-AIS 12 (SMIRENNIY)
1 57204U 23091AQ  26199.93086346  .00010915  00000+0  28022-3 0  9991
2 57204  97.5071 271.4476 0004438 316.9020  43.1878 15.39489947169657
SITRO-AIS 11 (SHEFFER)  
1 57208U 23091AU  26199.93530372  .00011357  00000+0  28724-3 0  9998
2 57208  97.5069 271.7193 0004366 315.9681  44.1216 15.39936833169679
H2SAT (HEINRICH HERTZ)  
1 57213U 23093A   26199.09628100 -.00000007  00000+0  00000+0 0  9994
2 57213   0.0259 101.2408 0000168  31.9153 198.0918  1.00270990 11229
KUZGTU 1 (RS47S)        
1 57217U 23091AV  26199.94555013  .00006335  00000+0  21709-3 0  9994
2 57217  97.5042 264.7615 0009678 352.5658   7.5437 15.30518628169232
QIANKUN-1               
1 57422U 23103B   26197.61257860  .00006165  16552-5  75371-5 0  9999
2 57422  96.1400 240.3808 0035589 130.8922 229.5456 16.07858994172024
FENGYUN 3F              
1 57490U 23111A   26199.96540137  .00000004  00000+0  22200-4 0  9998
2 57490  98.6823 269.3798 0001203  75.4782 284.6528 14.19943808153377
HJ-2F                   
1 57519U 23116A   26199.99606420  .00003816  00000+0  16656-3 0  9997
2 57519  97.3853 204.6708 0006383 295.9891  64.0688 15.22724905163597
XRISM                   
1 57800U 23137A   26199.20568667  .00002291  00000+0  12223-3 0  9999
2 57800  31.0010 158.6362 0007853 276.0934  83.8810 15.12682622157569
METEOR-M2 4             
1 59051U 24039A   26199.97798968 -.00000013  00000+0  13810-4 0  9999
2 59051  98.7028 158.8796 0008247  79.4037 280.8069 14.22432338123787
GRBBETA                 
1 60237U 24128C   26199.87567195  .00001695  00000+0  12622-3 0  9996
2 60237  61.9889 105.0706 0036590 141.4995 218.8719 15.06822536111047
TRANSPORTER-11 OBJECT A 
1 60468U 24149A   26199.74277289  .00004407  00000+0  13908-3 0  9995
2 60468  97.3721 279.5832 0004984 107.7894 252.3893 15.33372422106890
WARATAH SEED-1          
1 60469U 24149B   26199.96073778  .00007361  00000+0  20777-3 0  9991
2 60469  97.3676 280.5803 0003291 113.5281 246.6310 15.36674539106993
PHISAT 2                
1 60470U 24149C   26199.93684162  .00004949  00000+0  16542-3 0  9999
2 60470  97.3743 278.9835 0003320 116.0466 244.1118 15.31464723106853
LEMUR-2-TOMATOKECHUP    
1 60471U 24149D   26199.76126573  .00005641  00000+0  16003-3 0  9990
2 60471  97.3787 281.9009 0003406 115.5350 244.6247 15.36625314107017
CONNECTA IOT-1          
1 60472U 24149E   26199.75056539  .00001959  00000+0  84389-4 0  9995
2 60472  97.3746 275.5116 0003062 134.8008 225.3479 15.23756999106600
LOPEN                   
1 60473U 24149F   26199.77156608  .00008232  00000+0  20487-3 0  9995
2 60473  97.3768 283.4046 0002975 127.5605 232.5912 15.40526224107124
ROCK                    
1 60474U 24149G   26199.75833117  .00007976  00000+0  19866-3 0  9994
2 60474  97.3765 283.4052 0003244 124.8366 235.3186 15.40513359107122
CONNECTA IOT-3          
1 60475U 24149H   26199.90301454  .00002065  00000+0  88757-4 0  9996
2 60475  97.3720 275.4048 0004235 134.2831 225.8754 15.23771698106636
QUBE                    
1 60476U 24149J   26199.78442276  .00015126  00000+0  28489-3 0  9998
2 60476  97.3768 286.8597 0003370 122.6859 237.4717 15.48612004107354
WREN-1                  
1 60478U 24149L   26199.79869630  .00011477  00000+0  26473-3 0  9994
2 60478  97.3754 284.2695 0005704 141.2030 218.9628 15.42713026107190
TOMORROW-S1             
1 60479U 24149M   26199.79549650  .00003900  00000+0  12434-3 0  9996
2 60479  97.3738 280.1758 0004226 123.1507 237.0141 15.33121780106937
